#aV2020 10 30  0  0  0.00000000     288 DD+AD WGS84 FIT  NGA
## 2129 432000.00000000   300.00000000 59152 0.0000000000000
+   31     1  2  3  4  5  6  7  8  9 10 11 12 13 15 16 17 18
+         19 20 21 22 23 24 25 26 27 28 29 30 31 32  0  0  0
+          0  0  0  0  0  0  0  0  0  0  0  0  0  0  0  0  0
+          0  0  0  0  0  0  0  0  0  0  0  0  0  0  0  0  0
+          0  0  0  0  0  0  0  0  0  0  0  0  0  0  0  0  0
++         2  2  2  2  2  2  2  2  2  2  2  2  2  2  2  2  2
++         2  2  2  2  2  2  2  2  2  2  2  2  2  2  0  0  0
++         0  0  0  0  0  0  0  0  0  0  0  0  0  0  0  0  0
++         0  0  0  0  0  0  0  0  0  0  0  0  0  0  0  0  0
++         0  0  0  0  0  0  0  0  0  0  0  0  0  0  0  0  0
%c cc cc ccc ccc cccc cccc cccc cccc ccccc ccccc ccccc ccccc
%c cc cc ccc ccc cccc cccc cccc cccc ccccc ccccc ccccc ccccc
%f  0.0000000  0.000000000  0.00000000000  0.000000000000000
%f  0.0000000  0.000000000  0.00000000000  0.000000000000000
%i    0    0    0    0      0      0      0      0         0
%i    0    0    0    0      0      0      0      0         0
/*      NGA, ST. LOUIS,MO.                                  
/*   EPHEMERIS COMPUTED FROM 2 DAYS OF DATA                 
/*   EPOCHA v5 SMOOTHER                                     
/*   G1762 IERS2010 SATAF SATAPC                            
*  2020 10 30 19 15  0.00000000
P  1 -13800.946953   6153.383578  21566.534952    811.927400                    
V  1  -3609.240524 -27707.977919   5852.582830     -0.030396                    
P  2  13995.024825  15884.731270 -15402.219286   -536.332168                    
V  2   1795.846932  20767.571593  22115.555942     -0.048395                    
P  3 -22827.636378  12215.471071   5609.352232   -340.388017                    
V  3   4223.655405  -6449.278085  30876.177860     -0.101792                    
P  4 -21199.481807   2310.554524 -15855.394422   -150.538097                    
V  4 -17404.704475 -10287.143900  21724.186209     -0.037612                    
P  5  16985.805810   4657.209051 -20088.540050    -24.674640                    
V  5 -18962.078415  16538.760218 -12110.549666     -0.009348                    
P  6   5747.689147  25586.133479  -4029.825073   -336.232986                    
V  6  -1525.935771   5398.728031  31697.254442     -0.020055                    
P  7  -6968.430204  21612.640911 -13037.892601   -404.264742                    
V  7  -4731.648476 -16885.119330 -25324.260738     -0.078129                    
P  8 -25181.839544  -4771.089243   7502.836169    -53.319063                    
V  8  -7891.993406  -5608.588489 -29840.014517     -0.013563                    
P  9 -10935.378398  11797.057283 -21199.171646   -307.185376                    
V  9 -24551.726570 -10763.288970   6676.895461     -0.050262                    
P 10   4643.562448 -18988.184088  17949.985755   -492.663861                    
V 10  19122.736055 -12330.614242 -18334.442499     -0.093052                    
P 11 -18596.116469  -2439.471515  18214.049493   -122.371201                    
V 11 -11696.280800 -21518.101092 -14819.771339      0.105572                    
P 12  23620.918560  -9085.258843   7563.908661     47.024366                    
V 12  -7093.347884   7362.472333  30209.950329     -0.051368                    
P 13  22989.604326  13421.057082    247.356964     59.928102                    
V 13   -865.859384   2387.390406 -31838.340061      0.038016                    
P 15  25485.983366   1856.248674   7560.572629   -193.376278                    
V 15   8596.447578   6127.242922 -28771.499479      0.025841                    
P 16 -17260.350445  -5165.425006 -19885.541105   -229.620165                    
V 16  20543.760193 -13530.366569 -14035.382194     -0.052490                    
P 17   7951.271023  17771.073794  18511.005261    347.159005                    
V 17 -20635.662129  -9181.057082  18071.887103      0.052592                    
P 18   6266.321366 -22751.357818 -12146.547468    314.718249                    
V 18   3698.202034  15135.637285 -26514.934955      0.053435                    
P 19  14039.991101  18037.997473  13302.286520    -84.842685                    
V 19 -15951.503724  -6922.413795  25602.587708      0.050228                    
P 20  13610.858458 -21327.572287   7562.691461    526.210921                    
V 20   9512.097597  -4331.280742 -29304.416788     -0.001483                    
P 21 -16197.315294  -7603.320523  20492.163653     63.203263                    
V 21  -3735.046017 -24015.498304 -11980.069159      0.038999                    
P 22 -22072.894200   6636.507384  13259.798024   -736.647408                    
V 22  10376.743654 -13361.378008  24473.068691      0.049766                    
P 23  14051.911787 -20084.911133  10164.087767     93.754912                    
V 23  11731.338536  -6049.583311 -28108.842523      0.054231                    
P 24  15439.445662  -2514.194342  21248.160671      7.123525                    
V 24   5157.540989  27103.297829   -151.932503     -0.005256                    
P 25  19382.472648 -17625.738824  -3621.602654     13.839687                    
V 25   5215.954254   -267.367857  31542.073129      0.062758                    
P 26  -6923.947596 -14249.653428 -21328.410721    303.827133                    
V 26  21421.131930 -16596.015041   4382.551589      0.061454                    
P 27 -23192.901214 -12791.801735  -3871.212934     -2.671265                    
V 27   5070.124496     46.779379 -31397.109533     -0.085033                    
P 28  -4654.650940  18238.309583  19386.933726    661.499090                    
V 28 -20372.500785  11344.180779 -15889.044329     -0.046022                    
P 29  13731.884994  -8640.973080 -21076.706380   -226.393109                    
V 29  23354.603898  12738.617967   9964.701454     -0.077956                    
P 30   -860.383101  26068.120007  -4297.544983   -326.885045                    
V 30  -4132.679594  -5228.108666 -30745.513466     -0.067670                    
P 31  -6832.993979 -24597.021011  -6447.107174    -78.300386                    
V 31   2404.646045  -8479.561022  30530.289127     -0.024281                    
P 32  -8589.143158 -17515.892713  18179.787183    362.859720                    
V 32  21658.307537   7484.511029  17371.096406      0.036369                    
EOF
